STARLINK-30821          
1 58181U 23167G   26067.48837774  .00003376  00000+0  13541-3 0  9996
2 58181  42.9974 149.9789 0001105 242.9585 117.1154 15.26757242130790
TOMORROW-S4             
1 62386U 24247K   26068.53305366  .00012677  00000+0  46927-3 0  9990
2 62386  44.9818 117.9996 0004434 210.4078 149.6548 15.27717249 67702
